#dP2024  7 23  0  0  0.00000000      96 __u+U IGS20 FIT  IAC
## 2324 172800.00000000   900.00000000 60514 0.0000000000000
+   54   G02G03G04G05G06G07G08G09G10G11G12G13G14G15G16G17G18
+        G19G20G21G22G23G24G25G26G27G28G29G30G31G32R01R02R03
+        R04R05R07R08R09R11R12R13R14R15R16R17R18R19R20R21R22
+        R24R25R26  0  0  0  0  0  0  0  0  0  0  0  0  0  0
+          0  0  0  0  0  0  0  0  0  0  0  0  0  0  0  0  0
++         6  6  5  7  6  5  5  6  6  7  7  6  7  8  6  6  8
++         6  7  4  6  5  6  7  6  5  7  7  6  6  5  7  7  7
++         4  9  9  8  7  7  7  6  6  6  6  6  5  6  6  6  8
++         6  7  7  0  0  0  0  0  0  0  0  0  0  0  0  0  0
++         0  0  0  0  0  0  0  0  0  0  0  0  0  0  0  0  0
%c M  cc GPS ccc cccc cccc cccc cccc ccccc ccccc ccccc ccccc
%c cc cc ccc ccc cccc cccc cccc cccc ccccc ccccc ccccc ccccc
%f  0.0000000  0.000000000  0.00000000000  0.000000000000000
%f  0.0000000  0.000000000  0.00000000000  0.000000000000000
%i    0    0    0    0      0      0      0      0         0
%i    0    0    0    0      0      0      0      0         0
/* INFORMATION & ANALYSIS CENTER (IAC)      ULTRA-RAPID DATA
/* S/V CLOCKS ARE ALIGNED TO GNSS TIME                      
/* G:C1WC2W R:C1PC2P E:C1XC5X C:C2IC6I J:C1CC2S             
/* PCV:IGS20_2317 OL/AL:FES2004  NONE     YN ORB:CoN CLK:CoN
*  2024 07 23 18  0  0.00000000
PG02 -10820.357478  20152.867674 -12756.263445   -393.336562
PG03   2099.723303  16461.645780 -20930.504598    470.569202
PG04  -1206.496453  26254.091354  -3263.337579    409.731010
PG05  14564.751027  -8816.841681  20221.826498   -180.745522
PG06  21335.074527  -1708.031475 -15735.969731    143.756743
PG07   7619.772146  13758.734763  21907.468358    -64.308440
PG08  -7425.028194  21235.404594  13663.434579    286.657453
PG09   7865.526051  24102.679285   7732.743490    284.882908
PG10 -24474.512299 -10613.631026  -1647.120939    -73.828406
PG11  23512.319265 -11836.343938  -3260.974776   -709.932145
PG12   2055.508249 -15997.633137 -21388.325008   -524.629357
PG13  13223.890744 -13984.488174  17980.048443    666.421737
PG14  23114.370845  13218.791418   1743.955313    455.661016
PG15   4560.884806 -22353.449039  12938.423325    184.398117
PG16 -18426.209537   4111.741010  18522.753936   -228.548180
PG17  12936.861633  13296.637648 -18526.689393    671.442018
PG18  -7578.421345 -12866.114949  21973.889361   -639.515532
PG19  14896.234786   4161.666888 -21795.294360    514.572385
PG20  22277.987050  -3992.299884  13838.396564    372.453538
PG21 -14803.080983  19623.305271  -8151.130184    107.101936
PG22  23848.768558   9257.231734  -6128.408403    -43.037992
PG23 -19005.477013 -15837.007471   9970.069123    280.621482
PG24  11398.294616 -20894.944996 -11776.949341   -484.248309
PG25 -10081.826876 -18095.842903 -17105.167138    498.777960
PG26 -25184.641618  -3019.808610   8333.445990    114.532511
PG27 -12990.302791  11172.061249  19888.210903    -31.766499
PG28 -20255.363800    -61.803903 -17190.863177   -343.392151
PG29  -3348.135511 -25807.294237   4909.766248   -588.058346
PG30  17248.094293   5729.519723  19601.915626   -352.741570
PG31 -24018.747546   8767.889250  -8115.866837   -226.533729
PG32 -14385.449546 -11075.025169 -19242.663460   -610.539933
PR01 -12916.758129 -21739.573736  -3301.383269     92.285089
PR02 -14319.385009 -10863.788564 -18088.659346    -23.830416
PR03  -8547.000936   7017.951522 -22938.373250    104.288529
PR04   1757.879480  20399.702992 -15177.086616    246.526446
PR05  10987.190022  22995.987845    740.268656    134.959630
PR07   8170.426602  -7785.949690  22917.109860     87.294622
PR08  -1982.372793 -20559.621629  15048.850496     -6.127543
PR09  24968.603040   3269.904465   4365.195056    199.334157
PR11   7982.624789  -9986.050707 -22061.150775     17.261380
PR12 -13364.878465 -10189.671192 -19161.679024     42.800498
PR13 -24055.851931  -4822.429025  -6987.966778    -49.712760
PR14 -21694.277072   4740.050997  12549.105163     26.732484
PR15  -6214.747274  10405.017492  22468.651535     77.590026
PR16  13221.784870  10072.809403  19379.637255     27.634766
PR17 -16875.572750  16593.962010   9582.818903    107.219962
PR18 -11602.917767  21623.228233  -6875.215961    153.430745
PR19  -2178.959150  16884.452903 -19004.268512   -284.942367
PR20  12775.952795   -491.329322 -22074.259951   -116.600009
PR21  16998.652545 -16125.461691 -10044.929368   -119.974658
PR22  11341.226011 -21412.762690   8004.978679     83.262531
PR24 -13374.665438   1308.209971  21699.333853    -64.908078
PR25  17557.880920 -16019.836444  -9223.072166    -97.826916
PR26  -1209.417582 -19769.905768  16077.631313      5.855710
*  2024 07 23 18 15  0.00000000
PG02 -12025.938537  20893.485188 -10315.674825   -393.329802
PG03   -107.879709  15524.498350 -21732.243403    470.583455
PG04  -1491.351779  25735.806477  -6070.475065    409.737961
PG05  16650.919085  -7907.849063  18966.774188   -180.746643
PG06  19839.229046   -513.807408 -17644.239747    143.735848
PG07   5666.306757  15125.599253  21546.968143    -64.301761
PG08  -7899.562843  19567.970845  15751.767540    286.671612
PG09   7712.226079  24869.812219   5002.468061    284.896582
PG10 -24450.982305 -10780.306463   1235.862745    -73.837429
PG11  23196.891746 -11340.172868  -6064.624431   -709.937971
PG12   4209.396556 -14905.788832 -21858.503613   -524.632128
PG13  13279.668949 -11793.748359  19453.257499    666.424279
PG14  22676.130029  13322.051319   4525.145286    455.669002
PG15   5257.971199 -20788.980156  15046.585501    184.402172
PG16 -20179.571085   2998.299907  16905.928920   -228.538669
PG17  12884.324058  15407.083124 -16877.892731    671.434675
PG18  -5523.255058 -14277.956258  21694.192505   -639.518868
PG19  14875.619994   6581.181305 -21237.379706    514.577375
PG20  23631.855773  -3427.179063  11528.681463    372.453567
PG21 -15653.460508  19941.257579  -5380.960994    107.100039
PG22  24232.762822   9787.243116  -3325.343119    -43.042082
PG23 -17769.685632 -15502.952752  12450.915903    280.629451
PG24  12474.605532 -21444.791896  -9319.751482   -484.249383
PG25  -8198.441890 -17458.789401 -18706.649734    498.778231
PG26 -25859.450973  -3568.515975   5716.197753    114.526106
PG27 -13372.452427   8802.051645  20827.802823    -31.767215
PG28 -18723.034356  -1441.455784 -18793.764670   -343.406163
PG29  -3127.353958 -26219.970393   2063.345708   -588.056727
PG30  15474.575932   7151.554774  20573.990619   -352.735588
PG31 -23292.583400   7997.441804 -10659.689121   -226.533482
PG32 -14514.393460 -13225.286883 -17764.947840   -610.537914
PR01 -13146.992828 -21851.273742    -96.800023     92.285997
PR02 -15374.616521 -12688.985292 -15913.825968    -23.829965
PR03  -9855.384292   4486.092699 -23052.811481    104.288626
PR04    959.102901  18539.102238 -17460.691042    246.528151
PR05  11099.062999  22817.859751  -2486.978978    134.960672
PR07   9459.357313  -5263.475946  23134.698537     87.295431
PR08  -1177.653127 -18738.475149  17341.999498     -6.127651
PR09  24246.863735   3169.179881   7435.416978    199.336644
PR11  10638.585934  -9949.945904 -20930.007935     17.260217
PR12 -10901.382464 -10029.158400 -20737.955810     42.801450
PR13 -23014.691290  -4674.142975  -9964.107870    -49.713315
PR14 -23070.322766   4797.700619   9756.456841     26.733490
PR15  -8924.534430  10333.072742  21569.096819     77.590195
PR16  10743.051650   9910.693542  20931.528437     27.635459
PR17 -15994.719566  15547.731887  12423.646852    107.223707
PR18 -11801.919820  22279.656329  -3719.124288    153.432489
PR19  -3350.359088  18776.462921 -16948.072240   -284.943161
PR20  11115.493429   1738.540486 -22891.843163   -116.600496
PR21  16073.738156 -15039.675037 -12861.256131   -119.977663
PR22  11679.052706 -22146.099458   4921.727226     83.256299
PR24 -11856.052016   -959.516863  22580.944536    -64.908910
PR25  16694.910601 -15018.854919 -12071.523226    -97.828314
PR26   -324.383622 -17845.711272  18230.826824      5.857522
EOF
